ONEWEB-0545             
1 54647U 22166F   26169.62833264  .00002721  00000+0  65566-2 0  9992
2 54647  87.9255 243.6953 0002040  76.8360 283.3001 13.21814853171699
ONEWEB-0580             
1 54648U 22166G   26169.67877773  .00000018  00000+0  12109-4 0  9995
2 54648  87.9253 243.6850 0002226  88.3292 271.8097 13.21827221171748
ONEWEB-0582             
1 54649U 22166H   26169.49375902  .00000013  00000+0  78466-6 0  9998
2 54649  87.9254 243.7140 0002114  86.5690 273.5686 13.21827018171692
ONEWEB-0583             
1 54650U 22166J   26169.50552307 -.00000131  00000+0 -34799-3 0  9999
2 54650  87.9254 243.7351 0002035  95.0025 265.1342 13.21826921171707
ONEWEB-0584             
1 54651U 22166K   26169.67710721  .00000048  00000+0  85400-4 0  9995
2 54651  87.9248 243.6865 0002099  95.7252 264.4121 13.21825759171715
ONEWEB-0585             
1 54652U 22166L   26169.62496875  .00000079  00000+0  16085-3 0  9998
2 54652  87.9255 243.6841 0001997 103.5123 256.6234 13.21826751171710
ONEWEB-0586             
1 54653U 22166M   26169.48702163  .00000052  00000+0  95245-4 0  9990
2 54653  87.9256 243.7368 0001970  93.7665 266.3694 13.21824401171694
ONEWEB-0587             
1 54654U 22166N   26169.49711392 -.00000003  00000+0 -38666-4 0  9998
2 54654  87.9266 243.7084 0002053 108.6246 251.5110 13.21824582171852
ONEWEB-0589             
1 54655U 22166P   26169.48365851  .00000119  00000+0  25677-3 0  9996
2 54655  87.9251 243.7231 0002372  77.7532 282.3868 13.21824509171715
ONEWEB-0590             
1 54656U 22166Q   26169.66014899  .00000008  00000+0 -12278-4 0  9992
2 54656  87.9262 243.6785 0002496  99.0800 261.0617 13.21827590171723
ONEWEB-0591             
1 54657U 22166R   26169.67207198 -.00000018  00000+0 -76299-4 0  9995
2 54657  87.9254 243.6906 0002122  98.4001 261.7374 13.21826228171759
ONEWEB-0592             
1 54658U 22166S   26169.67542019  .00000012  00000+0 -28743-5 0  9995
2 54658  87.9263 243.6682 0002029  98.6320 261.5044 13.21827645171636
ONEWEB-0593             
1 54659U 22166T   26169.62158943  .00000061  00000+0  11619-3 0  9995
2 54659  87.9255 243.6906 0001905  95.1946 264.9405 13.21824400171730
ONEWEB-0594             
1 54660U 22166U   26169.49039402 -.00000014  00000+0 -64478-4 0  9992
2 54660  87.9251 243.7329 0001941 103.1775 256.9575 13.21827448171732
ONEWEB-0595             
1 54661U 22166V   26169.61822503  .00000053  00000+0  96463-4 0  9999
2 54661  87.9262 243.6884 0002136 105.0760 255.0611 13.21827471171728
ONEWEB-0596             
1 54662U 22166W   26169.66870110 -.00000033  00000+0 -11097-3 0  9991
2 54662  87.9256 243.6894 0002073 101.1107 259.0260 13.21827181171738
ONEWEB-0597             
1 54663U 22166X   26169.19601907  .00000007  00000+0 -14697-4 0  9996
2 54663  87.9253 243.7867 0001993  94.9553 265.1808 13.21826679171671
ONEWEB-0600             
1 54664U 22166Y   26169.63168645  .00000026  00000+0  32242-4 0  9999
2 54664  87.9252 243.6914 0001835  96.7293 263.4050 13.21823913171701
ONEWEB-0601             
1 54665U 22166Z   26169.62327903  .00000060  00000+0  11371-3 0  9990
2 54665  87.9249 243.7093 0002040  91.8077 268.3290 13.21826099171890
ONEWEB-0602             
1 54666U 22166AA  26169.66449046 -.00000053  00000+0 -16008-3 0  9994
2 54666  87.9254 243.7071 0001754  95.8507 264.2826 13.21826034171749
ONEWEB-0603             
1 54667U 22166AB  26169.67038615 -.00000021  00000+0 -81439-4 0  9998
2 54667  87.9263 243.6630 0001964  96.0760 264.0597 13.21826876171676
ONEWEB-0604             
1 54668U 22166AC  26169.50720137  .00000112  00000+0  23935-3 0  9993
2 54668  87.9264 243.7110 0002034 100.9061 259.2302 13.21828781171611
ONEWEB-0605             
1 54669U 22166AD  26169.50049102  .00000021  00000+0  19657-4 0  9996
2 54669  87.9253 243.7256 0002514  88.4619 271.6802 13.21826679171687
ONEWEB-0606             
1 54670U 22166AE  26169.67374833 -.00000004  00000+0 -40936-4 0  9995
2 54670  87.9251 243.7038 0002022 103.7246 256.4113 13.21826818171766
ONEWEB-0607             
1 54671U 22166AF  26169.48870352  .00000083  00000+0  16942-3 0  9996
2 54671  87.9262 243.7114 0001959  94.9389 265.1969 13.21824795171714
ONEWEB-0608             
1 54672U 22166AG  26169.49542397 -.00000026  00000+0 -93368-4 0  9990
2 54672  87.9265 243.7068 0002241  85.4755 274.6634 13.21828016171728
ONEWEB-0610             
1 54673U 22166AH  26169.62663983  .00000062  00000+0  11778-3 0  9993
2 54673  87.9253 243.6949 0002016  81.0681 279.0681 13.21824546171649
ONEWEB-0611             
1 54674U 22166AJ  26169.61989509 -.00000181  00000+0 -46939-3 0  9999
2 54674  87.9252 243.6924 0002045 102.7611 257.3752 13.21826378171630
ONEWEB-0612             
1 54675U 22166AK  26169.63337613  .00000044  00000+0  75101-4 0  9995
2 54675  87.9267 243.6853 0002046  94.3780 265.7588 13.21825412171629
ONEWEB-0615             
1 54676U 22166AL  26169.68888919  .00000011  00000+0 -39662-5 0  9999
2 54676  87.9256 243.6886 0001920 106.3269 253.8076 13.21826845171643
